[{"OBJECT_NAME":"CYGFM08","OBJECT_ID":"2016-078E","EPOCH":"2022-08-17T05:58:08.798880","MEAN_MOTION":15.16868352,"ECCENTRICITY":0.0015522,"INCLINATION":34.9491,"RA_OF_ASC_NODE":177.9751,"ARG_OF_PERICENTER":285.3686,"MEAN_ANOMALY":74.531,"EPHEMERIS_TYPE":0,"CLASSIFICATION_TYPE":"U","NORAD_CAT_ID":41888,"ELEMENT_SET_NO":999,"REV_AT_EPOCH":31413,"BSTAR":0.00013585,"MEAN_MOTION_DOT":2.712e-5,"MEAN_MOTION_DDOT":0},{"OBJECT_NAME":"CYGFM06","OBJECT_ID":"2016-078F","EPOCH":"2022-08-16T21:04:17.348448","MEAN_MOTION":15.17177742,"ECCENTRICITY":0.0014071,"INCLINATION":34.9569,"RA_OF_ASC_NODE":175.2205,"ARG_OF_PERICENTER":281.9468,"MEAN_ANOMALY":77.9666,"EPHEMERIS_TYPE":0,"CLASSIFICATION_TYPE":"U","NORAD_CAT_ID":41889,"ELEMENT_SET_NO":999,"REV_AT_EPOCH":31403,"BSTAR":0.00012677,"MEAN_MOTION_DOT":2.55e-5,"MEAN_MOTION_DDOT":0},{"OBJECT_NAME":"CYGFM07","OBJECT_ID":"2016-078G","EPOCH":"2022-08-16T20:45:37.726272","MEAN_MOTION":15.17109898,"ECCENTRICITY":0.0013855,"INCLINATION":34.9509,"RA_OF_ASC_NODE":174.1486,"ARG_OF_PERICENTER":286.0455,"MEAN_ANOMALY":73.8731,"EPHEMERIS_TYPE":0,"CLASSIFICATION_TYPE":"U","NORAD_CAT_ID":41890,"ELEMENT_SET_NO":999,"REV_AT_EPOCH":31416,"BSTAR":0.0001212,"MEAN_MOTION_DOT":2.432e-5,"MEAN_MOTION_DDOT":0},{"OBJECT_NAME":"CYGFM03","OBJECT_ID":"2016-078H","EPOCH":"2022-08-17T03:03:00.442944","MEAN_MOTION":15.17116588,"ECCENTRICITY":0.0013315,"INCLINATION":34.9537,"RA_OF_ASC_NODE":173.0045,"ARG_OF_PERICENTER":285.9894,"MEAN_ANOMALY":73.9351,"EPHEMERIS_TYPE":0,"CLASSIFICATION_TYPE":"U","NORAD_CAT_ID":41891,"ELEMENT_SET_NO":999,"REV_AT_EPOCH":31419,"BSTAR":0.0001198,"MEAN_MOTION_DOT":2.403e-5,"MEAN_MOTION_DDOT":0},{"OBJECT_NAME":"FENGYUN 3D","OBJECT_ID":"2017-072A","EPOCH":"2022-08-17T19:54:08.489088","MEAN_MOTION":14.19217645,"ECCENTRICITY":0.0002947,"INCLINATION":98.8178,"RA_OF_ASC_NODE":174.1334,"ARG_OF_PERICENTER":80.7772,"MEAN_ANOMALY":279.374,"EPHEMERIS_TYPE":0,"CLASSIFICATION_TYPE":"U","NORAD_CAT_ID":43010,"ELEMENT_SET_NO":999,"REV_AT_EPOCH":24647,"BSTAR":2.8859e-5,"MEAN_MOTION_DOT":1.6e-7,"MEAN_MOTION_DDOT":0},{"OBJECT_NAME":"NOAA 20","OBJECT_ID":"2017-073A","EPOCH":"2022-08-17T13:04:09.710976","MEAN_MOTION":14.195659,"ECCENTRICITY":7.46e-5,"INCLINATION":98.7174,"RA_OF_ASC_NODE":167.1493,"ARG_OF_PERICENTER":92.7194,"MEAN_ANOMALY":267.4068,"EPHEMERIS_TYPE":0,"CLASSIFICATION_TYPE":"U","NORAD_CAT_ID":43013,"ELEMENT_SET_NO":999,"REV_AT_EPOCH":24589,"BSTAR":3.5718e-5,"MEAN_MOTION_DOT":3.2e-7,"MEAN_MOTION_DDOT":0},{"OBJECT_NAME":"GOES 17","OBJECT_ID":"2018-022A","EPOCH":"2022-08-16T15:25:08.247648","MEAN_MOTION":1.00273047,"ECCENTRICITY":3.41e-5,"INCLINATION":0.0902,"RA_OF_ASC_NODE":271.0673,"ARG_OF_PERICENTER":254.6074,"MEAN_ANOMALY":253.2899,"EPHEMERIS_TYPE":0,"CLASSIFICATION_TYPE":"U","NORAD_CAT_ID":43226,"ELEMENT_SET_NO":999,"REV_AT_EPOCH":1637,"BSTAR":0,"MEAN_MOTION_DOT":8.6e-7,"MEAN_MOTION_DDOT":0},{"OBJECT_NAME":"FENGYUN 2H","OBJECT_ID":"2018-050A","EPOCH":"2022-08-16T18:25:29.241984","MEAN_MOTION":1.00268492,"ECCENTRICITY":0.000433,"INCLINATION":1.2975,"RA_OF_ASC_NODE":96.035,"ARG_OF_PERICENTER":47.6294,"MEAN_ANOMALY":177.0007,"EPHEMERIS_TYPE":0,"CLASSIFICATION_TYPE":"U","NORAD_CAT_ID":43491,"ELEMENT_SET_NO":999,"REV_AT_EPOCH":1539,"BSTAR":0,"MEAN_MOTION_DOT":-1.39e-6,"MEAN_MOTION_DDOT":0},{"OBJECT_NAME":"METOP-C","OBJECT_ID":"2018-087A","EPOCH":"2022-08-17T12:53:47.769216","MEAN_MOTION":14.21501809,"ECCENTRICITY":0.0002199,"INCLINATION":98.6796,"RA_OF_ASC_NODE":288.5171,"ARG_OF_PERICENTER":198.7605,"MEAN_ANOMALY":161.3492,"EPHEMERIS_TYPE":0,"CLASSIFICATION_TYPE":"U","NORAD_CAT_ID":43689,"ELEMENT_SET_NO":999,"REV_AT_EPOCH":19598,"BSTAR":4.5286e-5,"MEAN_MOTION_DOT":5.6e-7,"MEAN_MOTION_DDOT":0},{"OBJECT_NAME":"GEO-KOMPSAT-2A","OBJECT_ID":"2018-100A","EPOCH":"2022-08-15T10:08:41.452800","MEAN_MOTION":1.00271264,"ECCENTRICITY":0.0001828,"INCLINATION":0.0119,"RA_OF_ASC_NODE":113.1225,"ARG_OF_PERICENTER":2.1497,"MEAN_ANOMALY":128.9535,"EPHEMERIS_TYPE":0,"CLASSIFICATION_TYPE":"U","NORAD_CAT_ID":43823,"ELEMENT_SET_NO":999,"REV_AT_EPOCH":1356,"BSTAR":0,"MEAN_MOTION_DOT":-3.6e-6,"MEAN_MOTION_DDOT":0},{"OBJECT_NAME":"METEOR-M2 2","OBJECT_ID":"2019-038A","EPOCH":"2022-08-17T12:07:17.009472","MEAN_MOTION":14.23716788,"ECCENTRICITY":0.0002439,"INCLINATION":98.727,"RA_OF_ASC_NODE":189.8083,"ARG_OF_PERICENTER":92.9511,"MEAN_ANOMALY":267.1939,"EPHEMERIS_TYPE":0,"CLASSIFICATION_TYPE":"U","NORAD_CAT_ID":44387,"ELEMENT_SET_NO":999,"REV_AT_EPOCH":16209,"BSTAR":1.0038e-5,"MEAN_MOTION_DOT":-2.1e-7,"MEAN_MOTION_DDOT":0},{"OBJECT_NAME":"FENGYUN 3E","OBJECT_ID":"2021-062A","EPOCH":"2022-08-17T19:49:57.497088","MEAN_MOTION":14.19736285,"ECCENTRICITY":0.0002214,"INCLINATION":98.7126,"RA_OF_ASC_NODE":230.8197,"ARG_OF_PERICENTER":139.3033,"MEAN_ANOMALY":220.8311,"EPHEMERIS_TYPE":0,"CLASSIFICATION_TYPE":"U","NORAD_CAT_ID":49008,"ELEMENT_SET_NO":999,"REV_AT_EPOCH":5802,"BSTAR":1.8599e-5,"MEAN_MOTION_DOT":-4.0e-8,"MEAN_MOTION_DDOT":0},{"OBJECT_NAME":"GOES 18","OBJECT_ID":"2022-021A","EPOCH":"2022-08-17T13:24:19.705824","MEAN_MOTION":1.00273413,"ECCENTRICITY":0.0002957,"INCLINATION":0.0358,"RA_OF_ASC_NODE":85.4051,"ARG_OF_PERICENTER":125.7605,"MEAN_ANOMALY":178.8347,"EPHEMERIS_TYPE":0,"CLASSIFICATION_TYPE":"U","NORAD_CAT_ID":51850,"ELEMENT_SET_NO":999,"REV_AT_EPOCH":177,"BSTAR":0,"MEAN_MOTION_DOT":8.7e-7,"MEAN_MOTION_DDOT":0}]