CYGFM08                 
1 41888U 16078E   22229.24871295  .00002712  00000+0  13585-3 0  9992
2 41888  34.9491 177.9751 0015522 285.3686  74.5310 15.16868352314138
CYGFM06                 
1 41889U 16078F   22228.87797857  .00002550  00000+0  12677-3 0  9993
2 41889  34.9569 175.2205 0014071 281.9468  77.9666 15.17177742314035
CYGFM07                 
1 41890U 16078G   22228.86501998  .00002432  00000+0  12120-3 0  9995
2 41890  34.9509 174.1486 0013855 286.0455  73.8731 15.17109898314160
CYGFM03                 
1 41891U 16078H   22229.12708846  .00002403  00000+0  11980-3 0  9998
2 41891  34.9537 173.0045 0013315 285.9894  73.9351 15.17116588314193
FENGYUN 3D              
1 43010U 17072A   22229.82926492  .00000016  00000+0  28859-4 0  9996
2 43010  98.8178 174.1334 0002947  80.7772 279.3740 14.19217645246472
NOAA 20                 
1 43013U 17073A   22229.54455684  .00000032  00000+0  35718-4 0  9999
2 43013  98.7174 167.1493 0000746  92.7194 267.4068 14.19565900245890
GOES 17                 
1 43226U 18022A   22228.64245657  .00000086  00000+0  00000+0 0  9997
2 43226   0.0902 271.0673 0000341 254.6074 253.2899  1.00273047 16371
FENGYUN 2H              
1 43491U 18050A   22228.76769956 -.00000139  00000+0  00000+0 0  9998
2 43491   1.2975  96.0350 0004330  47.6294 177.0007  1.00268492 15394
METOP-C                 
1 43689U 18087A   22229.53735844  .00000056  00000+0  45286-4 0  9999
2 43689  98.6796 288.5171 0002199 198.7605 161.3492 14.21501809195985
GEO-KOMPSAT-2A          
1 43823U 18100A   22227.42270200 -.00000360  00000+0  00000+0 0  9990
2 43823   0.0119 113.1225 0001828   2.1497 128.9535  1.00271264 13561
METEOR-M2 2             
1 44387U 19038A   22229.50505798 -.00000021  00000+0  10038-4 0  9992
2 44387  98.7270 189.8083 0002439  92.9511 267.1939 14.23716788162095
FENGYUN 3E              
1 49008U 21062A   22229.82635992 -.00000004  00000+0  18599-4 0  9993
2 49008  98.7126 230.8197 0002214 139.3033 220.8311 14.19736285 58025
GOES 18                 
1 51850U 22021A   22229.55856141  .00000087  00000+0  00000+0 0  9991
2 51850   0.0358  85.4051 0002957 125.7605 178.8347  1.00273413  1773
